[{"OBJECT_NAME":"BLUEWALKER-3","OBJECT_ID":"2022-111AL","EPOCH":"2026-03-09T11:25:10.904160","MEAN_MOTION":15.37143225,"ECCENTRICITY":0.00049338,"INCLINATION":53.2289,"RA_OF_ASC_NODE":141.6753,"ARG_OF_PERICENTER":222.504,"MEAN_ANOMALY":137.5583,"EPHEMERIS_TYPE":0,"CLASSIFICATION_TYPE":"U","NORAD_CAT_ID":53807,"ELEMENT_SET_NO":999,"REV_AT_EPOCH":19486,"BSTAR":0.00020453656,"MEAN_MOTION_DOT":7.165e-5,"MEAN_MOTION_DDOT":0},{"OBJECT_NAME":"ELEVATION-1","OBJECT_ID":"2025-009BW","EPOCH":"2026-03-09T17:34:53.371488","MEAN_MOTION":15.36649756,"ECCENTRICITY":0.00031551,"INCLINATION":97.3895,"RA_OF_ASC_NODE":153.1078,"ARG_OF_PERICENTER":317.9798,"MEAN_ANOMALY":42.1204,"EPHEMERIS_TYPE":0,"CLASSIFICATION_TYPE":"U","NORAD_CAT_ID":62677,"ELEMENT_SET_NO":999,"REV_AT_EPOCH":12152,"BSTAR":0.00076188329,"MEAN_MOTION_DOT":0.00027253,"MEAN_MOTION_DDOT":0}]
