BLUEWALKER-3            
1 53807U 22111AL  26068.47582065  .00007165  00000+0  20454-3 0  9995
2 53807  53.2289 141.6753 0004933 222.5040 137.5583 15.37143225194868
ELEVATION-1             
1 62677U 25009BW  26068.73256216  .00027253  00000+0  76188-3 0  9999
2 62677  97.3895 153.1078 0003155 317.9798  42.1204 15.36649756121520
